[{"OBJECT_NAME":"BEIJING 1","OBJECT_ID":"2005-043A","EPOCH":"2026-03-04T04:51:47.318400","MEAN_MOTION":14.63453383,"ECCENTRICITY":0.0013404,"INCLINATION":98.2718,"RA_OF_ASC_NODE":195.9375,"ARG_OF_PERICENTER":248.8265,"MEAN_ANOMALY":111.1504,"EPHEMERIS_TYPE":0,"CLASSIFICATION_TYPE":"U","NORAD_CAT_ID":28890,"ELEMENT_SET_NO":999,"REV_AT_EPOCH":8529,"BSTAR":8.6888e-5,"MEAN_MOTION_DOT":4.01e-6,"MEAN_MOTION_DDOT":0},{"OBJECT_NAME":"HUANJING 1A (HJ-1A)","OBJECT_ID":"2008-041A","EPOCH":"2026-03-04T04:08:31.796736","MEAN_MOTION":14.83695391,"ECCENTRICITY":0.0020329,"INCLINATION":97.662,"RA_OF_ASC_NODE":53.1289,"ARG_OF_PERICENTER":120.3887,"MEAN_ANOMALY":239.934,"EPHEMERIS_TYPE":0,"CLASSIFICATION_TYPE":"U","NORAD_CAT_ID":33320,"ELEMENT_SET_NO":999,"REV_AT_EPOCH":94283,"BSTAR":0.0002055,"MEAN_MOTION_DOT":1.653e-5,"MEAN_MOTION_DDOT":0},{"OBJECT_NAME":"HUANJING 1B (HJ-1B)","OBJECT_ID":"2008-041B","EPOCH":"2026-03-04T03:55:33.589344","MEAN_MOTION":14.83086099,"ECCENTRICITY":0.0036609,"INCLINATION":97.6469,"RA_OF_ASC_NODE":56.5988,"ARG_OF_PERICENTER":165.6447,"MEAN_ANOMALY":194.5816,"EPHEMERIS_TYPE":0,"CLASSIFICATION_TYPE":"U","NORAD_CAT_ID":33321,"ELEMENT_SET_NO":999,"REV_AT_EPOCH":94284,"BSTAR":0.00018057,"MEAN_MOTION_DOT":1.436e-5,"MEAN_MOTION_DDOT":0},{"OBJECT_NAME":"YAOGAN-4","OBJECT_ID":"2008-061A","EPOCH":"2026-03-03T18:46:32.459232","MEAN_MOTION":14.82956596,"ECCENTRICITY":0.0015644,"INCLINATION":97.9244,"RA_OF_ASC_NODE":357.1305,"ARG_OF_PERICENTER":57.0282,"MEAN_ANOMALY":303.2433,"EPHEMERIS_TYPE":0,"CLASSIFICATION_TYPE":"U","NORAD_CAT_ID":33446,"ELEMENT_SET_NO":999,"REV_AT_EPOCH":93004,"BSTAR":0.00023985,"MEAN_MOTION_DOT":1.897e-5,"MEAN_MOTION_DDOT":0},{"OBJECT_NAME":"DEIMOS-1","OBJECT_ID":"2009-041A","EPOCH":"2026-03-04T04:27:46.569024","MEAN_MOTION":14.75102996,"ECCENTRICITY":0.0001989,"INCLINATION":97.7239,"RA_OF_ASC_NODE":225.0469,"ARG_OF_PERICENTER":126.1909,"MEAN_ANOMALY":233.9485,"EPHEMERIS_TYPE":0,"CLASSIFICATION_TYPE":"U","NORAD_CAT_ID":35681,"ELEMENT_SET_NO":999,"REV_AT_EPOCH":89140,"BSTAR":8.8863e-5,"MEAN_MOTION_DOT":5.52e-6,"MEAN_MOTION_DDOT":0},{"OBJECT_NAME":"UK-DMC 2","OBJECT_ID":"2009-041C","EPOCH":"2026-03-04T05:05:24.309024","MEAN_MOTION":14.7583636,"ECCENTRICITY":0.000107,"INCLINATION":97.8639,"RA_OF_ASC_NODE":200.8624,"ARG_OF_PERICENTER":90.281,"MEAN_ANOMALY":269.8522,"EPHEMERIS_TYPE":0,"CLASSIFICATION_TYPE":"U","NORAD_CAT_ID":35683,"ELEMENT_SET_NO":999,"REV_AT_EPOCH":89108,"BSTAR":0.00021596,"MEAN_MOTION_DOT":1.432e-5,"MEAN_MOTION_DDOT":0},{"OBJECT_NAME":"DMC3-FM1","OBJECT_ID":"2015-032A","EPOCH":"2026-03-04T03:18:41.154048","MEAN_MOTION":14.85605133,"ECCENTRICITY":0.0006832,"INCLINATION":97.6626,"RA_OF_ASC_NODE":292.3419,"ARG_OF_PERICENTER":48.7373,"MEAN_ANOMALY":311.443,"EPHEMERIS_TYPE":0,"CLASSIFICATION_TYPE":"U","NORAD_CAT_ID":40715,"ELEMENT_SET_NO":999,"REV_AT_EPOCH":57431,"BSTAR":0.00017685,"MEAN_MOTION_DOT":1.48e-5,"MEAN_MOTION_DDOT":0},{"OBJECT_NAME":"DMC3-FM2","OBJECT_ID":"2015-032B","EPOCH":"2026-03-04T03:50:52.113696","MEAN_MOTION":14.85604992,"ECCENTRICITY":0.0007392,"INCLINATION":97.6682,"RA_OF_ASC_NODE":293.8646,"ARG_OF_PERICENTER":52.0229,"MEAN_ANOMALY":308.1653,"EPHEMERIS_TYPE":0,"CLASSIFICATION_TYPE":"U","NORAD_CAT_ID":40716,"ELEMENT_SET_NO":999,"REV_AT_EPOCH":57431,"BSTAR":5.6422e-5,"MEAN_MOTION_DOT":4.37e-6,"MEAN_MOTION_DDOT":0},{"OBJECT_NAME":"DMC3-FM3","OBJECT_ID":"2015-032C","EPOCH":"2026-03-04T04:24:04.754304","MEAN_MOTION":14.85568696,"ECCENTRICITY":0.0006692,"INCLINATION":97.6734,"RA_OF_ASC_NODE":295.5715,"ARG_OF_PERICENTER":53.2644,"MEAN_ANOMALY":306.9186,"EPHEMERIS_TYPE":0,"CLASSIFICATION_TYPE":"U","NORAD_CAT_ID":40717,"ELEMENT_SET_NO":999,"REV_AT_EPOCH":57432,"BSTAR":9.6588e-5,"MEAN_MOTION_DOT":7.84e-6,"MEAN_MOTION_DDOT":0}]
