BEIJING 1               
1 28890U 05043A   26063.20263100  .00000401  00000+0  86888-4 0  9996
2 28890  98.2718 195.9375 0013404 248.8265 111.1504 14.63453383 85297
HUANJING 1A (HJ-1A)     
1 33320U 08041A   26063.17259024  .00001653  00000+0  20550-3 0  9990
2 33320  97.6620  53.1289 0020329 120.3887 239.9340 14.83695391942831
HUANJING 1B (HJ-1B)     
1 33321U 08041B   26063.16358321  .00001436  00000+0  18057-3 0  9998
2 33321  97.6469  56.5988 0036609 165.6447 194.5816 14.83086099942842
YAOGAN-4                
1 33446U 08061A   26062.78232013  .00001897  00000+0  23985-3 0  9991
2 33446  97.9244 357.1305 0015644  57.0282 303.2433 14.82956596930044
DEIMOS-1                
1 35681U 09041A   26063.18595566  .00000552  00000+0  88863-4 0  9997
2 35681  97.7239 225.0469 0001989 126.1909 233.9485 14.75102996891405
UK-DMC 2                
1 35683U 09041C   26063.21208691  .00001432  00000+0  21596-3 0  9990
2 35683  97.8639 200.8624 0001070  90.2810 269.8522 14.75836360891082
DMC3-FM1                
1 40715U 15032A   26063.13797632  .00001480  00000+0  17685-3 0  9995
2 40715  97.6626 292.3419 0006832  48.7373 311.4430 14.85605133574318
DMC3-FM2                
1 40716U 15032B   26063.16032539  .00000437  00000+0  56422-4 0  9991
2 40716  97.6682 293.8646 0007392  52.0229 308.1653 14.85604992574311
DMC3-FM3                
1 40717U 15032C   26063.18338836  .00000784  00000+0  96588-4 0  9995
2 40717  97.6734 295.5715 0006692  53.2644 306.9186 14.85568696574320
